{
    "links": {
        "self": "http://www.neowsapp.com/rest/v1/neo/3751200?api_key=iIulBulltgU6a56xZRHN4H3l9WmuAYTsLGpBGhQ2"
    },
    "id": "3751200",
    "neo_reference_id": "3751200",
    "name": "(2016 GP206)",
    "designation": "2016 GP206",
    "nasa_jpl_url": "http://ssd.jpl.nasa.gov/sbdb.cgi?sstr=3751200",
    "absolute_magnitude_h": 25.1,
    "estimated_diameter": {
        "kilometers": {
            "estimated_diameter_min": 0.0253837029,
            "estimated_diameter_max": 0.0567596853
        },
        "meters": {
            "estimated_diameter_min": 25.3837029364,
            "estimated_diameter_max": 56.7596852866
        },
        "miles": {
            "estimated_diameter_min": 0.0157726969,
            "estimated_diameter_max": 0.0352688224
        },
        "feet": {
            "estimated_diameter_min": 83.279867942,
            "estimated_diameter_max": 186.2194458756
        }
    },
    "is_potentially_hazardous_asteroid": false,
    "close_approach_data": [
        {
            "close_approach_date": "1917-03-08",
            "close_approach_date_full": "1917-Mar-08 22:39",
            "epoch_date_close_approach": -1666747260000,
            "relative_velocity": {
                "kilometers_per_second": "3.2215878674",
                "kilometers_per_hour": "11597.7163225188",
                "miles_per_hour": "7206.3699005117"
            },
            "miss_distance": {
                "astronomical": "1.5801161879",
                "lunar": "614.6651970931",
                "kilometers": "236382016.062359773",
                "miles": "146880973.8198919474"
            },
            "orbiting_body": "Juptr"
        },
        {
            "close_approach_date": "2016-04-16",
            "close_approach_date_full": "2016-Apr-16 04:59",
            "epoch_date_close_approach": 1460782740000,
            "relative_velocity": {
                "kilometers_per_second": "9.6981543567",
                "kilometers_per_hour": "34913.3556842972",
                "miles_per_hour": "21693.8014806123"
            },
            "miss_distance": {
                "astronomical": "0.0446055384",
                "lunar": "17.3515544376",
                "kilometers": "6672893.534843208",
                "miles": "4146343.7740359504"
            },
            "orbiting_body": "Earth"
        }
    ],
    "orbital_data": {
        "orbit_id": "5",
        "orbit_determination_date": "2019-12-04 07:15:43",
        "first_observation_date": "2016-04-03",
        "last_observation_date": "2016-04-15",
        "data_arc_in_days": 12,
        "observations_used": 14,
        "orbit_uncertainty": "8",
        "minimum_orbit_intersection": ".0440065",
        "jupiter_tisserand_invariant": "3.399",
        "epoch_osculation": "2457483.5",
        "eccentricity": ".5692947669728108",
        "semi_major_axis": "2.239949064046122",
        "inclination": "3.757536170481367",
        "ascending_node_longitude": "344.3699024724825",
        "orbital_period": "1224.491122607177",
        "perihelion_distance": ".9647577835990193",
        "perihelion_argument": "250.1522849963949",
        "aphelion_distance": "3.515140344493224",
        "perihelion_time": "2457517.137771790722",
        "mean_anomaly": "350.1105058084241",
        "mean_motion": ".2939996814623619",
        "equinox": "J2000",
        "orbit_class": {
            "orbit_class_type": "APO",
            "orbit_class_description": "Near-Earth asteroid orbits which cross the Earth’s orbit similar to that of 1862 Apollo",
            "orbit_class_range": "a (semi-major axis) > 1.0 AU; q (perihelion) < 1.017 AU"
        }
    },
    "is_sentry_object": false
}